[{"OBJECT_NAME":"SHIYAN-7 (SY-7)","OBJECT_ID":"2013-037A","EPOCH":"2026-03-09T22:41:23.798976","MEAN_MOTION":14.72151848,"ECCENTRICITY":0.00091905,"INCLINATION":98.0902,"RA_OF_ASC_NODE":72.6774,"ARG_OF_PERICENTER":101.2537,"MEAN_ANOMALY":258.9703,"EPHEMERIS_TYPE":0,"CLASSIFICATION_TYPE":"U","NORAD_CAT_ID":39208,"ELEMENT_SET_NO":999,"REV_AT_EPOCH":67760,"BSTAR":0.00015875824,"MEAN_MOTION_DOT":9.5e-6,"MEAN_MOTION_DDOT":0},{"OBJECT_NAME":"COSMOS 2251 DEB","OBJECT_ID":"1993-036AGH","EPOCH":"2026-03-09T07:48:48.006432","MEAN_MOTION":14.62956376,"ECCENTRICITY":0.00887425,"INCLINATION":74.0472,"RA_OF_ASC_NODE":33.0435,"ARG_OF_PERICENTER":126.124,"MEAN_ANOMALY":234.8183,"EPHEMERIS_TYPE":0,"CLASSIFICATION_TYPE":"U","NORAD_CAT_ID":35020,"ELEMENT_SET_NO":999,"REV_AT_EPOCH":89504,"BSTAR":0.0001850914,"MEAN_MOTION_DOT":9.71e-6,"MEAN_MOTION_DDOT":0}]
